CCSDS_OMM_VERS = 2.0
CREATION_DATE  = 
ORIGINATOR     = 

OBJECT_NAME    = STARLINK-35594
OBJECT_ID      = 2025-240M
CENTER_NAME    = EARTH
REF_FRAME      = TEME
TIME_SYSTEM    = UTC
MEAN_ELEMENT_THEORY = SGP/SGP4

EPOCH          = 2025-11-22T00:59:50.261280
MEAN_MOTION    = 15.49304106
ECCENTRICITY   = .00012325
INCLINATION    = 53.1586
RA_OF_ASC_NODE = 203.7700
ARG_OF_PERICENTER = 64.1516
MEAN_ANOMALY   = 295.9620

EPHEMERIS_TYPE = 0
CLASSIFICATION_TYPE = U
NORAD_CAT_ID   = 66157
ELEMENT_SET_NO = 999
REV_AT_EPOCH   = 549
BSTAR          = .10864328E-2
MEAN_MOTION_DOT = .60433E-3
MEAN_MOTION_DDOT = 0

CCSDS_OMM_VERS = 2.0
CREATION_DATE  = 
ORIGINATOR     = 

OBJECT_NAME    = STARLINK-35587
OBJECT_ID      = 2025-240N
CENTER_NAME    = EARTH
REF_FRAME      = TEME
TIME_SYSTEM    = UTC
MEAN_ELEMENT_THEORY = SGP/SGP4

EPOCH          = 2025-11-21T22:41:03.995232
MEAN_MOTION    = 15.39511449
ECCENTRICITY   = .00010234
INCLINATION    = 53.1594
RA_OF_ASC_NODE = 204.5942
ARG_OF_PERICENTER = 77.6204
MEAN_ANOMALY   = 282.4915

EPHEMERIS_TYPE = 0
CLASSIFICATION_TYPE = U
NORAD_CAT_ID   = 66158
ELEMENT_SET_NO = 999
REV_AT_EPOCH   = 547
BSTAR          = .89594018E-3
MEAN_MOTION_DOT = .35476E-3
MEAN_MOTION_DDOT = 0

CCSDS_OMM_VERS = 2.0
CREATION_DATE  = 
ORIGINATOR     = 

OBJECT_NAME    = STARLINK-35586
OBJECT_ID      = 2025-240P
CENTER_NAME    = EARTH
REF_FRAME      = TEME
TIME_SYSTEM    = UTC
MEAN_ELEMENT_THEORY = SGP/SGP4

EPOCH          = 2025-11-22T00:58:50.667744
MEAN_MOTION    = 15.49305279
ECCENTRICITY   = .00010614
INCLINATION    = 53.1586
RA_OF_ASC_NODE = 203.7653
ARG_OF_PERICENTER = 73.5241
MEAN_ANOMALY   = 286.5884

EPHEMERIS_TYPE = 0
CLASSIFICATION_TYPE = U
NORAD_CAT_ID   = 66159
ELEMENT_SET_NO = 999
REV_AT_EPOCH   = 549
BSTAR          = .11392392E-2
MEAN_MOTION_DOT = .63419E-3
MEAN_MOTION_DDOT = 0

CCSDS_OMM_VERS = 2.0
CREATION_DATE  = 
ORIGINATOR     = 

OBJECT_NAME    = STARLINK-35636
OBJECT_ID      = 2025-240Q
CENTER_NAME    = EARTH
REF_FRAME      = TEME
TIME_SYSTEM    = UTC
MEAN_ELEMENT_THEORY = SGP/SGP4

EPOCH          = 2025-11-21T22:41:33.904320
MEAN_MOTION    = 15.39499366
ECCENTRICITY   = .00012837
INCLINATION    = 53.1591
RA_OF_ASC_NODE = 204.5940
ARG_OF_PERICENTER = 87.9743
MEAN_ANOMALY   = 272.1409

EPHEMERIS_TYPE = 0
CLASSIFICATION_TYPE = U
NORAD_CAT_ID   = 66160
ELEMENT_SET_NO = 999
REV_AT_EPOCH   = 547
BSTAR          = .8813267E-3
MEAN_MOTION_DOT = .34874E-3
MEAN_MOTION_DDOT = 0

CCSDS_OMM_VERS = 2.0
CREATION_DATE  = 
ORIGINATOR     = 

OBJECT_NAME    = STARLINK-35635
OBJECT_ID      = 2025-240R
CENTER_NAME    = EARTH
REF_FRAME      = TEME
TIME_SYSTEM    = UTC
MEAN_ELEMENT_THEORY = SGP/SGP4

EPOCH          = 2025-11-21T22:48:13.630464
MEAN_MOTION    = 15.39586122
ECCENTRICITY   = .0001148
INCLINATION    = 53.1587
RA_OF_ASC_NODE = 204.6226
ARG_OF_PERICENTER = 70.2750
MEAN_ANOMALY   = 289.8378

EPHEMERIS_TYPE = 0
CLASSIFICATION_TYPE = U
NORAD_CAT_ID   = 66161
ELEMENT_SET_NO = 999
REV_AT_EPOCH   = 547
BSTAR          = .13452405E-2
MEAN_MOTION_DOT = .53729E-3
MEAN_MOTION_DDOT = 0

CCSDS_OMM_VERS = 2.0
CREATION_DATE  = 
ORIGINATOR     = 

OBJECT_NAME    = STARLINK-35633
OBJECT_ID      = 2025-240S
CENTER_NAME    = EARTH
REF_FRAME      = TEME
TIME_SYSTEM    = UTC
MEAN_ELEMENT_THEORY = SGP/SGP4

EPOCH          = 2025-11-21T22:40:11.554752
MEAN_MOTION    = 15.49290031
ECCENTRICITY   = .00013625
INCLINATION    = 53.1593
RA_OF_ASC_NODE = 203.8697
ARG_OF_PERICENTER = 86.5887
MEAN_ANOMALY   = 273.5278

EPHEMERIS_TYPE = 0
CLASSIFICATION_TYPE = U
NORAD_CAT_ID   = 66162
ELEMENT_SET_NO = 999
REV_AT_EPOCH   = 548
BSTAR          = .11493092E-2
MEAN_MOTION_DOT = .63954E-3
MEAN_MOTION_DDOT = 0

CCSDS_OMM_VERS = 2.0
CREATION_DATE  = 
ORIGINATOR     = 

OBJECT_NAME    = STARLINK-35607
OBJECT_ID      = 2025-240T
CENTER_NAME    = EARTH
REF_FRAME      = TEME
TIME_SYSTEM    = UTC
MEAN_ELEMENT_THEORY = SGP/SGP4

EPOCH          = 2025-11-21T22:39:41.737248
MEAN_MOTION    = 15.49296671
ECCENTRICITY   = .00012871
INCLINATION    = 53.1594
RA_OF_ASC_NODE = 203.8675
ARG_OF_PERICENTER = 109.4558
MEAN_ANOMALY   = 250.6590

EPHEMERIS_TYPE = 0
CLASSIFICATION_TYPE = U
NORAD_CAT_ID   = 66163
ELEMENT_SET_NO = 999
REV_AT_EPOCH   = 548
BSTAR          = .71340088E-3
MEAN_MOTION_DOT = .39411E-3
MEAN_MOTION_DDOT = 0

CCSDS_OMM_VERS = 2.0
CREATION_DATE  = 
ORIGINATOR     = 

OBJECT_NAME    = STARLINK-35614
OBJECT_ID      = 2025-240U
CENTER_NAME    = EARTH
REF_FRAME      = TEME
TIME_SYSTEM    = UTC
MEAN_ELEMENT_THEORY = SGP/SGP4

EPOCH          = 2025-11-21T22:38:42.341568
MEAN_MOTION    = 15.49300644
ECCENTRICITY   = .00010106
INCLINATION    = 53.1591
RA_OF_ASC_NODE = 203.8613
ARG_OF_PERICENTER = 80.0063
MEAN_ANOMALY   = 280.1060

EPHEMERIS_TYPE = 0
CLASSIFICATION_TYPE = U
NORAD_CAT_ID   = 66164
ELEMENT_SET_NO = 999
REV_AT_EPOCH   = 548
BSTAR          = .68756127E-3
MEAN_MOTION_DOT = .37966E-3
MEAN_MOTION_DDOT = 0

CCSDS_OMM_VERS = 2.0
CREATION_DATE  = 
ORIGINATOR     = 

OBJECT_NAME    = STARLINK-35575
OBJECT_ID      = 2025-240V
CENTER_NAME    = EARTH
REF_FRAME      = TEME
TIME_SYSTEM    = UTC
MEAN_ELEMENT_THEORY = SGP/SGP4

EPOCH          = 2025-11-21T22:39:12.161664
MEAN_MOTION    = 15.49303704
ECCENTRICITY   = .00013547
INCLINATION    = 53.1595
RA_OF_ASC_NODE = 203.8647
ARG_OF_PERICENTER = 74.5225
MEAN_ANOMALY   = 285.5933

EPHEMERIS_TYPE = 0
CLASSIFICATION_TYPE = U
NORAD_CAT_ID   = 66165
ELEMENT_SET_NO = 999
REV_AT_EPOCH   = 548
BSTAR          = .16052718E-2
MEAN_MOTION_DOT = .89847E-3
MEAN_MOTION_DDOT = 0

CCSDS_OMM_VERS = 2.0
CREATION_DATE  = 
ORIGINATOR     = 

OBJECT_NAME    = STARLINK-35624
OBJECT_ID      = 2025-240W
CENTER_NAME    = EARTH
REF_FRAME      = TEME
TIME_SYSTEM    = UTC
MEAN_ELEMENT_THEORY = SGP/SGP4

EPOCH          = 2025-11-22T06:00:02.000160
MEAN_MOTION    = 15.49351083
ECCENTRICITY   = .00010738
INCLINATION    = 53.1587
RA_OF_ASC_NODE = 202.3893
ARG_OF_PERICENTER = 103.5791
MEAN_ANOMALY   = 170.6695

EPHEMERIS_TYPE = 0
CLASSIFICATION_TYPE = U
NORAD_CAT_ID   = 66166
ELEMENT_SET_NO = 999
REV_AT_EPOCH   = 560
BSTAR          = -.12206379E-2
MEAN_MOTION_DOT = -.67848E-3
MEAN_MOTION_DDOT = 0

CCSDS_OMM_VERS = 2.0
CREATION_DATE  = 
ORIGINATOR     = 

OBJECT_NAME    = STARLINK-35641
OBJECT_ID      = 2025-240X
CENTER_NAME    = EARTH
REF_FRAME      = TEME
TIME_SYSTEM    = UTC
MEAN_ELEMENT_THEORY = SGP/SGP4

EPOCH          = 2025-11-22T01:44:01.154112
MEAN_MOTION    = 15.49290994
ECCENTRICITY   = .00009532
INCLINATION    = 53.1590
RA_OF_ASC_NODE = 203.2421
ARG_OF_PERICENTER = 129.6475
MEAN_ANOMALY   = 230.4619

EPHEMERIS_TYPE = 0
CLASSIFICATION_TYPE = U
NORAD_CAT_ID   = 66167
ELEMENT_SET_NO = 999
REV_AT_EPOCH   = 550
BSTAR          = .91564034E-3
MEAN_MOTION_DOT = .50775E-3
MEAN_MOTION_DDOT = 0

CCSDS_OMM_VERS = 2.0
CREATION_DATE  = 
ORIGINATOR     = 

OBJECT_NAME    = STARLINK-35578
OBJECT_ID      = 2025-240Y
CENTER_NAME    = EARTH
REF_FRAME      = TEME
TIME_SYSTEM    = UTC
MEAN_ELEMENT_THEORY = SGP/SGP4

EPOCH          = 2025-11-21T22:36:14.040288
MEAN_MOTION    = 15.49294405
ECCENTRICITY   = .00011353
INCLINATION    = 53.1592
RA_OF_ASC_NODE = 203.8508
ARG_OF_PERICENTER = 88.2535
MEAN_ANOMALY   = 271.8604

EPHEMERIS_TYPE = 0
CLASSIFICATION_TYPE = U
NORAD_CAT_ID   = 66168
ELEMENT_SET_NO = 999
REV_AT_EPOCH   = 548
BSTAR          = .81967686E-3
MEAN_MOTION_DOT = .4538E-3
MEAN_MOTION_DDOT = 0

